NORAD_CAT_ID,OBJECT_NAME,OBJECT_TYPE,EPOCH,MEAN_MOTION,ECCENTRICITY,INCLINATION,RA_OF_ASC_NODE,ARG_OF_PERICENTER,MEAN_ANOMALY,BSTAR,MEAN_MOTION_DOT,MEAN_MOTION_DDOT,TLE_LINE0,TLE_LINE1,TLE_LINE2,SEMIMAJOR_AXIS,PERIOD,APOGEE,PERIGEE,DECAYED
49432.0,STARLINK-3158,PAYLOAD,2022-06-26 06:36:45,15.08845148,0.0002958,53.2148,170.351,41.1993,318.9222,8.7375e-05,1.102e-05,0.0,0 STARLINK-3158,1 49432U 21104AA  22177.27552962  .00001102  00000-0  87375-4 0  9995,2 49432  53.2148 170.3510 0002958  41.1993 318.9222 15.08845148 35688,6917.865,95.437,541.776,537.683,0.0
49432.0,STARLINK-3158,PAYLOAD,2022-06-26 16:09:05,15.08838686,0.0002985,53.2148,168.5671,41.4872,318.6346,2.1229e-05,4.9e-07,0.0,0 STARLINK-3158,1 49432U 21104AA  22177.67297491  .00000049  00000-0  21229-4 0  9997,2 49432  53.2148 168.5671 0002985  41.4872 318.6346 15.08838686 35744,6917.884,95.438,541.814,537.684,0.0
49432.0,STARLINK-3158,PAYLOAD,2022-06-27 04:52:11,15.08823713,0.0002984,53.2152,166.1889,44.5398,315.5834,-0.00011407,-2.103e-05,0.0,0 STARLINK-3158,1 49432U 21104AA  22178.20291151 -.00002103  00000-0 -11407-3 0  9995,2 49432  53.2152 166.1889 0002984  44.5398 315.5834 15.08823713 35822,6917.93,95.439,541.859,537.731,0.0
49432.0,STARLINK-3158,PAYLOAD,2022-06-27 06:27:34,15.08824669,0.0003003,53.2151,165.8916,44.9446,315.1788,-0.00010455,-1.952e-05,0.0,0 STARLINK-3158,1 49432U 21104AA  22178.26915099 -.00001952  00000-0 -10455-3 0  9998,2 49432  53.2151 165.8916 0003003  44.9446 315.1788 15.08824669 34755,6917.927,95.439,541.87,537.715,0.0
49432.0,STARLINK-3158,PAYLOAD,2022-06-27 15:59:53,15.08824641,0.000303,53.2151,164.1074,45.4377,314.6862,-0.00010194,-1.91e-05,0.0,0 STARLINK-3158,1 49432U 21104AA  22178.66659417 -.00001910  00000-0 -10194-3 0  9995,2 49432  53.2151 164.1074 0003030  45.4377 314.6862 15.08824641 34815,6917.927,95.439,541.888,537.696,0.0
49432.0,STARLINK-3158,PAYLOAD,2022-06-28 04:42:58,15.08828375,0.0002955,53.2157,161.7293,48.5387,311.5859,-8.803200000000001e-05,-1.689e-05,0.0,0 STARLINK-3158,1 49432U 21104AA  22179.19651508 -.00001689  00000-0 -88032-4 0  9997,2 49432  53.2157 161.7293 0002955  48.5387 311.5859 15.08828375 35975,6917.916,95.438,541.825,537.737,0.0
49432.0,STARLINK-3158,PAYLOAD,2022-06-28 07:53:45,15.08826806,0.0002967,53.2156,161.1345,48.1518,311.9727,-9.8025e-05,-1.848e-05,0.0,0 STARLINK-3158,1 49432U 21104AA  22179.32899749 -.00001848  00000-0 -98025-4 0  9993,2 49432  53.2156 161.1345 0002967  48.1518 311.9727 15.08826806 34919,6917.920999999999,95.438,541.8380000000002,537.7330000000002,0.0
49432.0,STARLINK-3158,PAYLOAD,2022-06-28 15:50:41,15.08827757,0.000306,53.2155,159.6468,45.6683,314.4559,-6.899199999999999e-05,-1.386e-05,0.0,0 STARLINK-3158,1 49432U 21104AA  22179.66019871 -.00001386  00000-0 -68992-4 0  9997,2 49432  53.2155 159.6468 0003060  45.6683 314.4559 15.08827757 34968,6917.918000000002,95.438,541.9,537.6659999999998,0.0
49432.0,STARLINK-3158,PAYLOAD,2022-06-29 07:44:33,15.08821718,0.0003018,53.2152,156.6719,44.6623,315.4612,7.4557e-05,8.98e-06,0.0,0 STARLINK-3158,1 49432U 21104AA  22180.32260470  .00000898  00000-0  74557-4 0  9994,2 49432  53.2152 156.6719 0003018  44.6623 315.4612 15.08821718 36141,6917.936,95.439,541.889,537.7130000000002,0.0
49432.0,STARLINK-3158,PAYLOAD,2022-06-29 22:03:00,15.08837609,0.0003077,53.2153,153.996,43.9195,316.2041,0.00015162,2.125e-05,0.0,0 STARLINK-3158,1 49432U 21104AA  22180.91875526  .00002125  00000-0  15162-3 0  9994,2 49432  53.2153 153.9960 0003077  43.9195 316.2041 15.08837609 35152,6917.888000000001,95.438,541.881,537.624,0.0
49432.0,STARLINK-3158,PAYLOAD,2022-06-30 04:24:32,15.08843426,0.0003031,53.2152,152.8063,45.4767,314.6472,0.00017826,2.55e-05,0.0,0 STARLINK-3158,1 49432U 21104AA  22181.18371041  .00002550  00000-0  17826-3 0  9998,2 49432  53.2152 152.8063 0003031  45.4767 314.6472 15.08843426 36273,6917.87,95.437,541.832,537.638,0.0
49432.0,STARLINK-3158,PAYLOAD,2022-06-30 07:35:18,15.08844395,0.000304,53.2152,152.2114,45.7489,314.3752,0.00017996,2.577e-05,0.0,0 STARLINK-3158,1 49432U 21104AA  22181.31618944  .00002577  00000-0  17996-3 0  9996,2 49432  53.2152 152.2114 0003040  45.7489 314.3752 15.08844395 35215,6917.8669999999975,95.437,541.835,537.629,0.0
49432.0,STARLINK-3158,PAYLOAD,2022-06-30 15:32:14,15.08847453,0.0003053,53.2152,150.7246,46.2525,313.8719,0.00017487,2.496e-05,0.0,0 STARLINK-3158,1 49432U 21104AA  22181.64738634  .00002496  00000-0  17487-3 0  9996,2 49432  53.2152 150.7246 0003053  46.2525 313.8719 15.08847453 35265,6917.858,95.437,541.835,537.611,0.0
49432.0,STARLINK-3158,PAYLOAD,2022-07-01 07:26:05,15.08844282,0.0003024,53.2152,147.7542,46.1076,314.0165,9.2319e-05,1.181e-05,0.0,0 STARLINK-3158,1 49432U 21104AA  22182.30978750  .00001181  00000-0  92319-4 0  9993,2 49432  53.2152 147.7542 0003024  46.1076 314.0165 15.08844282 36444,6917.8669999999975,95.437,541.8240000000002,537.64,0.0
49432.0,STARLINK-3158,PAYLOAD,2022-07-01 20:09:10,15.08846653,0.0003166,53.216,145.3738,47.6523,312.4737,-3.7115e-05,-8.8e-06,0.0,0 STARLINK-3158,1 49432U 21104AA  22182.83970759 -.00000880  00000-0 -37115-4 0  9992,2 49432  53.2160 145.3738 0003166  47.6523 312.4737 15.08846653 35444,6917.86,95.437,541.915,537.535,0.0
49432.0,STARLINK-3158,PAYLOAD,2022-07-02 04:06:05,15.0885234,0.0003106,53.2155,143.8855,48.3826,311.7432,-3.1787e-05,-7.95e-06,0.0,0 STARLINK-3158,1 49432U 21104AA  22183.17090134 -.00000795  00000-0 -31787-4 0  9994,2 49432  53.2155 143.8855 0003106  48.3826 311.7432 15.08852340 35498,6917.843000000003,95.437,541.856,537.559,0.0
49432.0,STARLINK-3158,PAYLOAD,2022-07-02 21:35:19,15.08858393,0.0003193,53.2163,140.6151,49.3045,310.8225,3.3943000000000007e-06,-2.35e-06,0.0,0 STARLINK-3158,1 49432U 21104AA  22183.89952865 -.00000235  00000-0  33943-5 0  9996,2 49432  53.2163 140.6151 0003193  49.3045 310.8225 15.08858393 36687,6917.824000000001,95.436,541.898,537.48,0.0
49432.0,STARLINK-3158,PAYLOAD,2022-07-03 13:29:11,15.08841425,0.0003078,53.215,137.641,48.8364,311.2893,-1.2225e-05,-4.83e-06,0.0,0 STARLINK-3158,1 49432U 21104AA  22184.56193417 -.00000483  00000-0 -12225-4 0  9996,2 49432  53.2150 137.6410 0003078  48.8364 311.2893 15.08841425 36782,6917.876,95.437,541.87,537.612,0.0
49432.0,STARLINK-3158,PAYLOAD,2022-07-03 21:26:06,15.0884217,0.0003062,53.2147,136.154,50.1731,309.9531,-3.791e-05,-8.92e-06,0.0,0 STARLINK-3158,1 49432U 21104AA  22184.89313408 -.00000892  00000-0 -37910-4 0  9998,2 49432  53.2147 136.1540 0003062  50.1731 309.9531 15.08842170 35750,6917.874,95.437,541.857,537.621,0.0
49432.0,STARLINK-3158,PAYLOAD,2022-07-04 06:58:26,15.08834492,0.0003081,53.2151,134.3694,50.2417,309.8846,-9.4872e-05,-1.798e-05,0.0,0 STARLINK-3158,1 49432U 21104AA  22185.29058129 -.00001798  00000-0 -94872-4 0  9995,2 49432  53.2151 134.3694 0003081  50.2417 309.8846 15.08834492 35811,6917.897,95.438,541.894,537.631,0.0
49432.0,STARLINK-3158,PAYLOAD,2022-07-04 21:16:54,15.08841621,0.0003168999999999,53.2158,131.6928,50.1025,310.0246,-0.00010147,-1.904e-05,0.0,0 STARLINK-3158,1 49432U 21104AA  22185.88673788 -.00001904  00000-0 -10147-3 0  9995,2 49432  53.2158 131.6928 0003169  50.1025 310.0246 15.08841621 35909,6917.875,95.437,541.933,537.548,0.0
49432.0,STARLINK-3158,PAYLOAD,2022-07-05 05:13:49,15.08836478,0.0003227,53.2158,130.20600000000002,54.5744,305.5549,4.4304e-05,4.16e-06,0.0,0 STARLINK-3158,1 49432U 21104AA  22186.21793601  .00000416  00000-0  44304-4 0  9998,2 49432  53.2158 130.2060 0003227  54.5744 305.5549 15.08836478 37037,6917.891,95.438,541.989,537.524,0.0
49432.0,STARLINK-3158,PAYLOAD,2022-07-05 13:10:45,15.08840616,0.0003109,53.216,128.7192,51.9605,308.1667,3.8137e-05,3.18e-06,0.0,0 STARLINK-3158,1 49432U 21104AA  22186.54913299  .00000318  00000-0  38137-4 0  9999,2 49432  53.2160 128.7192 0003109  51.9605 308.1667 15.08840616 36009,6917.879,95.438,541.894,537.5930000000002,0.0
49432.0,STARLINK-3158,PAYLOAD,2022-07-05 21:07:40,15.08840666,0.0003064,53.2158,127.2319,51.7683,308.3584,8.7291e-05,1.101e-05,0.0,0 STARLINK-3158,1 49432U 21104AA  22186.88033086  .00001101  00000-0  87291-4 0  9999,2 49432  53.2158 127.2319 0003064  51.7683 308.3584 15.08840666 36055,6917.878000000002,95.438,541.863,537.624,0.0
49432.0,STARLINK-3158,PAYLOAD,2022-07-06 13:01:32,15.08829237,0.0003073,53.2164,124.2586,53.93899999999999,306.1886,2.7508e-05,1.49e-06,0.0,0 STARLINK-3158,1 49432U 21104AA  22187.54274303  .00000149  00000-0  27508-4 0  9998,2 49432  53.2164 124.2586 0003073  53.9390 306.1886 15.08829237 37237,6917.913000000001,95.438,541.904,537.6519999999998,0.0
49432.0,STARLINK-3158,PAYLOAD,2022-07-06 19:23:05,15.08832585,0.0003058999999999,53.2164,123.0686,54.5533,305.5744,2.5157e-05,1.12e-06,0.0,0 STARLINK-3158,1 49432U 21104AA  22187.80770221  .00000112  00000-0  25157-4 0  9995,2 49432  53.2164 123.0686 0003059  54.5533 305.5744 15.08832585 36195,6917.903,95.438,541.884,537.6519999999998,0.0
49432.0,STARLINK-3158,PAYLOAD,2022-07-07 08:06:10,15.08842027,0.0003099,53.2162,120.6899,55.4095,304.7189,4.3785e-05,4.08e-06,0.0,0 STARLINK-3158,1 49432U 21104AA  22188.33761619  .00000408  00000-0  43785-4 0  9990,2 49432  53.2162 120.6899 0003099  55.4095 304.7189 15.08842027 36274,6917.874,95.437,541.883,537.595,0.0
49432.0,STARLINK-3158,PAYLOAD,2022-07-08 04:46:10,15.08851655,0.0003101,53.2165,116.8245,56.9122,303.2167,-8.6171e-05,-1.66e-05,0.0,0 STARLINK-3158,1 49432U 21104AA  22189.19873043 -.00001660  00000-0 -86171-4 0  9999,2 49432  53.2165 116.8245 0003101  56.9122 303.2167 15.08851655 37481,6917.845,95.437,541.855,537.565,0.0
49432.0,STARLINK-3158,PAYLOAD,2022-07-09 04:36:58,15.08824051,0.0003104,53.2164,112.3635,59.4086,300.7212,0.00011107,1.479e-05,0.0,0 STARLINK-3158,1 49432U 21104AA  22190.19234450  .00001479  00000-0  11107-3 0  9996,2 49432  53.2164 112.3635 0003104  59.4086 300.7212 15.08824051 37634,6917.929,95.439,541.941,537.6469999999998,0.0
